{
  "type": "FeatureCollection",
  "features": [
    {
      "type": "Feature",
      "properties": {
        "norad_id": 42989,
        "name": "SKYSAT-C9",
        "group": "resource",
        "lat": 82.55778024920592,
        "lon": 31.217101058307154,
        "alt_km": 443.4548732524581,
        "timestamp": "2025-12-20T18:51:31.375571+00:00",
        "meta_object_name": "SKYSAT-C9",
        "meta_object_id": "2017-068C",
        "meta_epoch": "2025-12-20T09:05:14.412192",
        "meta_mean_motion": 15.36231902,
        "meta_eccentricity": 0.00105072,
        "meta_inclination": 97.4201,
        "meta_ra_of_asc_node": 124.6936,
        "meta_arg_of_pericenter": 63.4871,
        "meta_mean_anomaly": 296.7449,
        "meta_ephemeris_type": 0,
        "meta_classification_type": "U",
        "meta_norad_cat_id": 42989,
        "meta_element_set_no": 999,
        "meta_rev_at_epoch": 45525,
        "meta_bstar": 0.00027592198,
        "meta_mean_motion_dot": 9.68e-05,
        "meta_mean_motion_ddot": 0,
        "tle_line1": "1 42989U 17068C   25354.37863903  .00009680  00000+0  27592-3 0  9992",
        "tle_line2": "2 42989  97.4201 124.6936 0010507  63.4871 296.7449 15.36231902455254"
      },
      "geometry": {
        "type": "Point",
        "coordinates": [
          31.217101058307154,
          82.55778024920592
        ]
      }
    },
    {
      "type": "Feature",
      "properties": {
        "norad_id": 42990,
        "name": "SKYSAT-C8",
        "group": "resource",
        "lat": -29.468360988508504,
        "lon": 129.04968486741316,
        "alt_km": 471.9595803215725,
        "timestamp": "2025-12-20T18:51:31.375581+00:00",
        "meta_object_name": "SKYSAT-C8",
        "meta_object_id": "2017-068D",
        "meta_epoch": "2025-12-20T06:27:22.559040",
        "meta_mean_motion": 15.3307619,
        "meta_eccentricity": 0.00010761,
        "meta_inclination": 97.4285,
        "meta_ra_of_asc_node": 124.3027,
        "meta_arg_of_pericenter": 306.8673,
        "meta_mean_anomaly": 53.247,
        "meta_ephemeris_type": 0,
        "meta_classification_type": "U",
        "meta_norad_cat_id": 42990,
        "meta_element_set_no": 999,
        "meta_rev_at_epoch": 45486,
        "meta_bstar": 0.00026423589,
        "meta_mean_motion_dot": 8.365e-05,
        "meta_mean_motion_ddot": 0,
        "tle_line1": "1 42990U 17068D   25354.26901110  .00008365  00000+0  26424-3 0  9997",
        "tle_line2": "2 42990  97.4285 124.3027 0001076 306.8673  53.2470 15.33076190454860"
      },
      "geometry": {
        "type": "Point",
        "coordinates": [
          129.04968486741316,
          -29.468360988508504
        ]
      }
    },
    {
      "type": "Feature",
      "properties": {
        "norad_id": 42991,
        "name": "SKYSAT-C7",
        "group": "resource",
        "lat": 11.227701361331393,
        "lon": -52.65934645099674,
        "alt_km": 473.51201355084504,
        "timestamp": "2025-12-20T18:51:31.375591+00:00",
        "meta_object_name": "SKYSAT-C7",
        "meta_object_id": "2017-068E",
        "meta_epoch": "2025-12-20T07:09:22.524768",
        "meta_mean_motion": 15.32476114,
        "meta_eccentricity": 0.0007174,
        "meta_inclination": 97.4292,
        "meta_ra_of_asc_node": 125.367,
        "meta_arg_of_pericenter": 33.5088,
        "meta_mean_anomaly": 326.6606,
        "meta_ephemeris_type": 0,
        "meta_classification_type": "U",
        "meta_norad_cat_id": 42991,
        "meta_element_set_no": 999,
        "meta_rev_at_epoch": 45493,
        "meta_bstar": 0.00025454434,
        "meta_mean_motion_dot": 7.909e-05,
        "meta_mean_motion_ddot": 0,
        "tle_line1": "1 42991U 17068E   25354.29817737  .00007909  00000+0  25454-3 0  9997",
        "tle_line2": "2 42991  97.4292 125.3670 0007174  33.5088 326.6606 15.32476114454938"
      },
      "geometry": {
        "type": "Point",
        "coordinates": [
          -52.65934645099674,
          11.227701361331393
        ]
      }
    },
    {
      "type": "Feature",
      "properties": {
        "norad_id": 42992,
        "name": "SKYSAT-C6",
        "group": "resource",
        "lat": -78.45182926248988,
        "lon": -93.42316579727242,
        "alt_km": 481.4776326922247,
        "timestamp": "2025-12-20T18:51:31.375601+00:00",
        "meta_object_name": "SKYSAT-C6",
        "meta_object_id": "2017-068F",
        "meta_epoch": "2025-12-20T14:35:10.243680",
        "meta_mean_motion": 15.31638191,
        "meta_eccentricity": 0.00049668,
        "meta_inclination": 97.4327,
        "meta_ra_of_asc_node": 126.1098,
        "meta_arg_of_pericenter": 62.0961,
        "meta_mean_anomaly": 298.0783,
        "meta_ephemeris_type": 0,
        "meta_classification_type": "U",
        "meta_norad_cat_id": 42992,
        "meta_element_set_no": 999,
        "meta_rev_at_epoch": 45496,
        "meta_bstar": 0.0002327987,
        "meta_mean_motion_dot": 7.036e-05,
        "meta_mean_motion_ddot": 0,
        "tle_line1": "1 42992U 17068F   25354.60775745  .00007036  00000+0  23280-3 0  9991",
        "tle_line2": "2 42992  97.4327 126.1098 0004966  62.0961 298.0783 15.31638191454969"
      },
      "geometry": {
        "type": "Point",
        "coordinates": [
          -93.42316579727242,
          -78.45182926248988
        ]
      }
    },
    {
      "type": "Feature",
      "properties": {
        "norad_id": 43111,
        "name": "CARTOSAT-2F",
        "group": "resource",
        "lat": 11.572821861215685,
        "lon": 50.76264603819514,
        "alt_km": 509.8335129737543,
        "timestamp": "2025-12-20T18:51:31.375611+00:00",
        "meta_object_name": "CARTOSAT-2F",
        "meta_object_id": "2018-004A",
        "meta_epoch": "2025-12-20T14:03:54.407232",
        "meta_mean_motion": 15.1919718,
        "meta_eccentricity": 0.0001379,
        "meta_inclination": 97.431,
        "meta_ra_of_asc_node": 52.0977,
        "meta_arg_of_pericenter": 109.4948,
        "meta_mean_anomaly": 250.6436,
        "meta_ephemeris_type": 0,
        "meta_classification_type": "U",
        "meta_norad_cat_id": 43111,
        "meta_element_set_no": 999,
        "meta_rev_at_epoch": 44021,
        "meta_bstar": 0.00028545782,
        "meta_mean_motion_dot": 5.94e-05,
        "meta_mean_motion_ddot": 0,
        "tle_line1": "1 43111U 18004A   25354.58604638  .00005940  00000+0  28546-3 0  9997",
        "tle_line2": "2 43111  97.4310  52.0977 0001379 109.4948 250.6436 15.19197180440210"
      },
      "geometry": {
        "type": "Point",
        "coordinates": [
          50.76264603819514,
          11.572821861215685
        ]
      }
    },
    {
      "type": "Feature",
      "properties": {
        "norad_id": 43259,
        "name": "GAOFEN-1 02",
        "group": "resource",
        "lat": -20.530010455921175,
        "lon": 55.62805041785656,
        "alt_km": 647.282507090863,
        "timestamp": "2025-12-20T18:51:31.375621+00:00",
        "meta_object_name": "GAOFEN-1 02",
        "meta_object_id": "2018-031A",
        "meta_epoch": "2025-12-20T14:04:22.539936",
        "meta_mean_motion": 14.76430258,
        "meta_eccentricity": 0.00022561,
        "meta_inclination": 98.0802,
        "meta_ra_of_asc_node": 52.379,
        "meta_arg_of_pericenter": 186.4069,
        "meta_mean_anomaly": 173.7112,
        "meta_ephemeris_type": 0,
        "meta_classification_type": "U",
        "meta_norad_cat_id": 43259,
        "meta_element_set_no": 999,
        "meta_rev_at_epoch": 41634,
        "meta_bstar": 0.00011562822,
        "meta_mean_motion_dot": 7.52e-06,
        "meta_mean_motion_ddot": 0,
        "tle_line1": "1 43259U 18031A   25354.58637199  .00000752  00000+0  11563-3 0  9995",
        "tle_line2": "2 43259  98.0802  52.3790 0002256 186.4069 173.7112 14.76430258416347"
      },
      "geometry": {
        "type": "Point",
        "coordinates": [
          55.62805041785656,
          -20.530010455921175
        ]
      }
    },
    {
      "type": "Feature",
      "properties": {
        "norad_id": 43260,
        "name": "GAOFEN-1 03",
        "group": "resource",
        "lat": 80.41238946749819,
        "lon": -70.3119387350963,
        "alt_km": 634.3235181346199,
        "timestamp": "2025-12-20T18:51:31.375631+00:00",
        "meta_object_name": "GAOFEN-1 03",
        "meta_object_id": "2018-031B",
        "meta_epoch": "2025-12-20T15:10:34.436928",
        "meta_mean_motion": 14.76451481,
        "meta_eccentricity": 0.00016995,
        "meta_inclination": 98.0788,
        "meta_ra_of_asc_node": 52.3004,
        "meta_arg_of_pericenter": 280.6383,
        "meta_mean_anomaly": 79.4635,
        "meta_ephemeris_type": 0,
        "meta_classification_type": "U",
        "meta_norad_cat_id": 43260,
        "meta_element_set_no": 999,
        "meta_rev_at_epoch": 41634,
        "meta_bstar": 9.4825915e-05,
        "meta_mean_motion_dot": 6.08e-06,
        "meta_mean_motion_ddot": 0,
        "tle_line1": "1 43260U 18031B   25354.63234302  .00000608  00000+0  94826-4 0  9996",
        "tle_line2": "2 43260  98.0788  52.3004 0001699 280.6383  79.4635 14.76451481416349"
      },
      "geometry": {
        "type": "Point",
        "coordinates": [
          -70.3119387350963,
          80.41238946749819
        ]
      }
    }
  ]
}